******************************************************************************* Revised: June 21, 2016                 Mars                            499 / 4  PHYSICAL DATA (updated 2018-Aug-15):  Vol. mean radius (km) = 3389.92+-0.04   Density (g/cm^3)      =  3.933(5+-4)  Mass x10^23 (kg)      =    6.4171       Flattening, f         =  1/169.779  Volume (x10^10 km^3)  =   16.318        Semi-major axis       =  3396.2   Sidereal rot. period  =   24.622962 hr  Sid. rot. rate, rad/s =  0.0000708822   Mean solar day (sol)  =   88775.24415 s Polar gravity m/s^2   =  3.758  Core radius (km)      = ~1700           Equ. gravity  m/s^2   =  3.71  Geometric Albedo      =    0.150        Equatorial radius, Re = 3394.0 km                                         GM (km^3/s^2)         = 42828.375214    Mass ratio (Sun/Mars) = 3098703.59  GM 1-sigma (km^3/s^2) = +- 0.00028      Mass of atmosphere, kg= ~ 2.5 x 10^16  Mean temperature (K)  =  210            Atmos. pressure (bar) =    0.0056   Obliquity to orbit    =   25.19 deg     Max. angular diam.    =  17.9"  Mean sidereal orb per =    1.88081578 y Visual mag. V(1,0)    =  -1.52  Mean sidereal orb per =  686.98 d       Orbital speed,  km/s  =  24.13  Hill's sphere rad. Rp =  319.8          Escape speed, km/s    =   5.027                                 Perihelion  Aphelion    Mean  Solar Constant (W/m^2)         717         493         589  Maximum Planetary IR (W/m^2)   470         315         390  Minimum Planetary IR (W/m^2)    30          30          30*******************************************************************************  *******************************************************************************Ephemeris / WWW_USER Thu Sep 26 03:49:00 2019 Pasadena, USA      / Horizons    *******************************************************************************Target body name: Mars (499)                      {source: mar097}Center body name: Sun (10)                        {source: mar097}Center-site name: BODYCENTRIC*******************************************************************************Start time      : A.D. 2020-Aug-29 00:00:00.0000 UT      Stop  time      : A.D. 2020-Sep-05 00:00:00.0000 UT      Step-size       : 1440 minutes*******************************************************************************Target pole/equ : IAU_MARS                        {West-longitude positive}Target radii    : 3396.2 x 3396.2 x 3376.2 km     {Equator, meridian, pole}    Center geodetic : 0.00000000,0.00000000,0.0000000 {E-lon(deg),Lat(deg),Alt(km)}Center cylindric: 0.00000000,0.00000000,0.0000000 {E-lon(deg),Dxy(km),Dz(km)}Center pole/equ : IAU_SUN                         {East-longitude positive}Center radii    : 696000.0 x 696000.0 x 696000.0 k{Equator, meridian, pole}    Target primary  : SunVis. interferer : NoneRel. light bend : Sun                             {source: mar097}Rel. lght bnd GM: 1.3271E+11 km^3/s^2                                          Atmos refraction: NO (AIRLESS)RA format       : DEGTime format     : CAL EOP file        : eop.190925.p191217                                           EOP coverage    : DATA-BASED 1962-JAN-20 TO 2019-SEP-25. PREDICTS-> 2019-DEC-16Units conversion: 1 au= 149597870.700 km, c= 299792.458 km/s, 1 day= 86400.0 s Table cut-offs 1: Elevation (-90.0deg=NO ),Airmass     n.a.    , Daylight (NO )Table cut-offs 2: Solar elongation (  0.0,180.0=NO ),Local Hour Angle( 0.0=NO )Table cut-offs 3: RA/DEC angular rate (     0.0=NO )                           ******************************************************************************* Date__(UT)__HR:MN     R.A._(ICRF/J2K)_DEC               r        rdot**********************************************************************$$SOE 2020-Aug-29 00:00     353.57859  -4.46642 2.073565072E+08   0.6321724 2020-Aug-30 00:00     354.15462  -4.20688 2.074121580E+08   0.6560291 2020-Aug-31 00:00     354.72995  -3.94705 2.074698661E+08   0.6797929 2020-Sep-01 00:00     355.30460  -3.68698 2.075296232E+08   0.7034607 2020-Sep-02 00:00     355.87857  -3.42669 2.075914210E+08   0.7270293 2020-Sep-03 00:00     356.45188  -3.16621 2.076552506E+08   0.7504956 2020-Sep-04 00:00     357.02455  -2.90558 2.077211033E+08   0.7738565 2020-Sep-05 00:00     357.59659  -2.64483 2.077889696E+08   0.7971089$$EOE*******************************************************************************Column meaning: TIME  Times PRIOR to 1962 are UT1, a mean-solar time closely related to theprior but now-deprecated GMT. Times AFTER 1962 are in UTC, the currentcivil or "wall-clock" time-scale. UTC is kept within 0.9 seconds of UT1by introduction of integer leap-seconds for 1972 and later.  Conversion from the internal Barycentric Dynamical Time (TDB) to thenon-uniform civil UT time-scale requested for output has not been determinedfor UTC times after the next July or January 1st. Therefore, the last knownleap-second is used as a constant over future intervals.  Time tags refer to the UT time-scale conversion on Earth regardless ofwhere the observer is located in the solar system. For example, if anobservation from the surface of another body has an output time-tag of12:31:00 UT, it refers to a time-scale conversion from TDB to UT validat the center of the Earth at that instant, not the observer's locationelsewhere in the solar system, where clock rates may differ slightly dueto the local gravity field and there is no precisely defined or adopted"UT" analog.  Any 'b' symbol in the 1st-column denotes a B.C. date. First-column blank(" ") denotes an A.D. date. Calendar dates prior to 1582-Oct-15 are in theJulian calendar system. Later calendar dates are in the Gregorian system.  NOTE: "n.a." in output means quantity "not available" at the print-time.  R.A._(ICRF/J2K)_DEC =   Astrometric right ascension and declination of the TARGET CENTER withrespect to the observing site in the coordinates of the ICRF/J2000 inertialreference frame. Compensated for down-leg light-time.   Units: DEGREES and DEGREES  r       rdot =   Heliocentric range ("r", light-time corrected) and range-rate ("rdot") ofthe target center at the instant light seen by the observer at print-time wouldhave left the target center (print-time minus down-leg light-time). TheSun-to-target distance traveled by a ray of light emanating from the center ofthe Sun that reaches the target center at some instant and is recordable bythe observer one down-leg light-time later at print-time. Units: KM and KM/S Computations by ...     Solar System Dynamics Group, Horizons On-Line Ephemeris System     4800 Oak Grove Drive, Jet Propulsion Laboratory     Pasadena, CA  91109   USA     Information: http://ssd.jpl.nasa.gov/     Connect    : telnet://ssd.jpl.nasa.gov:6775  (via browser)                  telnet ssd.jpl.nasa.gov 6775    (via command-line)     Author     : Jon.D.Giorgini@jpl.nasa.gov*******************************************************************************